[{"OBJECT_NAME":"NESS","OBJECT_ID":"2023-155E","EPOCH":"2026-03-09T18:20:54.923712","MEAN_MOTION":15.26794015,"ECCENTRICITY":0.00068914,"INCLINATION":97.5941,"RA_OF_ASC_NODE":152.6141,"ARG_OF_PERICENTER":179.8776,"MEAN_ANOMALY":180.2465,"EPHEMERIS_TYPE":0,"CLASSIFICATION_TYPE":"U","NORAD_CAT_ID":58020,"ELEMENT_SET_NO":999,"REV_AT_EPOCH":13330,"BSTAR":0.00074047066,"MEAN_MOTION_DOT":0.00019469,"MEAN_MOTION_DDOT":0},{"OBJECT_NAME":"STARLINK-31976","OBJECT_ID":"2024-100C","EPOCH":"2026-03-09T12:14:46.048416","MEAN_MOTION":15.27599527,"ECCENTRICITY":0.00017707,"INCLINATION":43.0015,"RA_OF_ASC_NODE":130.3389,"ARG_OF_PERICENTER":234.8036,"MEAN_ANOMALY":125.265,"EPHEMERIS_TYPE":0,"CLASSIFICATION_TYPE":"U","NORAD_CAT_ID":59887,"ELEMENT_SET_NO":999,"REV_AT_EPOCH":10108,"BSTAR":-0.00016273516,"MEAN_MOTION_DOT":-4.74e-5,"MEAN_MOTION_DDOT":0}]
